[{"OBJECT_NAME":"DAMPE","OBJECT_ID":"2015-078A","EPOCH":"2026-03-09T23:55:00.527232","MEAN_MOTION":15.30502084,"ECCENTRICITY":0.00138005,"INCLINATION":97.4588,"RA_OF_ASC_NODE":73.9866,"ARG_OF_PERICENTER":70.6942,"MEAN_ANOMALY":289.579,"EPHEMERIS_TYPE":0,"CLASSIFICATION_TYPE":"U","NORAD_CAT_ID":41173,"ELEMENT_SET_NO":999,"REV_AT_EPOCH":56937,"BSTAR":9.1158173e-5,"MEAN_MOTION_DOT":2.617e-5,"MEAN_MOTION_DDOT":0},{"OBJECT_NAME":"STARLINK-31881","OBJECT_ID":"2024-084F","EPOCH":"2026-03-09T06:32:49.494048","MEAN_MOTION":15.27592544,"ECCENTRICITY":9.972e-5,"INCLINATION":43.0039,"RA_OF_ASC_NODE":40.3268,"ARG_OF_PERICENTER":277.3177,"MEAN_ANOMALY":82.7561,"EPHEMERIS_TYPE":0,"CLASSIFICATION_TYPE":"U","NORAD_CAT_ID":59659,"ELEMENT_SET_NO":999,"REV_AT_EPOCH":10435,"BSTAR":-5.3394297e-5,"MEAN_MOTION_DOT":-1.732e-5,"MEAN_MOTION_DDOT":0}]
